[{"OBJECT_NAME":"DMC3-FM2","OBJECT_ID":"2015-032B","EPOCH":"2026-03-09T22:51:57.203424","MEAN_MOTION":14.85619682,"ECCENTRICITY":0.00071042,"INCLINATION":97.6664,"RA_OF_ASC_NODE":299.4449,"ARG_OF_PERICENTER":36.5414,"MEAN_ANOMALY":323.6285,"EPHEMERIS_TYPE":0,"CLASSIFICATION_TYPE":"U","NORAD_CAT_ID":40716,"ELEMENT_SET_NO":999,"REV_AT_EPOCH":57517,"BSTAR":0.00013054077,"MEAN_MOTION_DOT":1.079e-5,"MEAN_MOTION_DDOT":0},{"OBJECT_NAME":"THORAD AGENA D DEB","OBJECT_ID":"1969-082AR","EPOCH":"2026-03-09T21:06:59.651712","MEAN_MOTION":14.83040021,"ECCENTRICITY":0.00231111,"INCLINATION":70.0666,"RA_OF_ASC_NODE":244.902,"ARG_OF_PERICENTER":183.9311,"MEAN_ANOMALY":176.1663,"EPHEMERIS_TYPE":0,"CLASSIFICATION_TYPE":"U","NORAD_CAT_ID":4173,"ELEMENT_SET_NO":999,"REV_AT_EPOCH":95875,"BSTAR":0.0011892785,"MEAN_MOTION_DOT":9.667e-5,"MEAN_MOTION_DDOT":0}]
